0 CHINASAT 5A (CHINASTAR1)
1 25354U 98033A   13280.84878956 -.00000324  00000-0  10000-3 0  8354
2 25354 000.1118 076.3068 0002478 097.8305 276.3686 01.00535379 60811
0 CHINASAT 5A (CHINASTAR1)
1 25354U 98033A   13281.85348152 -.00000321  00000-0  10000-3 0  8364
2 25354 000.1139 076.3079 0002481 098.2934 279.5358 01.00534869 60828
0 CHINASAT 5A (CHINASTAR1)
1 25354U 98033A   13282.82758830  .00000000  00000-0  10000-3 0  8408
2 25354 000.1137 078.2750 0002721 132.7568 235.6501 01.00530531 60833
0 CHINASAT 5A (CHINASTAR1)
1 25354U 98033A   13282.88277961 -.00000318  00000-0  10000-3 0  8374
2 25354 000.1159 076.3206 0002486 099.9600 290.3908 01.00534349 60831
0 CHINASAT 5A (CHINASTAR1)
1 25354U 98033A   13282.94109022 -.00000318  00000-0  10000-3 0  8384
2 25354 000.1162 076.2602 0002664 106.3131 305.2065 01.00534461 60839
0 CHINASAT 5A (CHINASTAR1)
1 25354U 98033A   13286.70014795 -.00000305  00000-0  10000-3 0  8403
2 25354 000.1241 076.4999 0002677 105.0185 226.7660 01.00532658 60875
0 CHINASAT 5A (CHINASTAR1)
1 25354U 98033A   13287.70738780 -.00000299  00000-0  10000-3 0  8414
2 25354 000.1262 076.5510 0002650 104.6989 231.5768 01.00532179 60888
0 CHINASAT 5A (CHINASTAR1)
1 25354U 98033A   13289.48953677 -.00000285  00000-0  10000-3 0  8421
2 25354 000.1299 076.5532 0002629 105.0424 156.2274 01.00531385 60891
0 CHINASAT 5A (CHINASTAR1)
1 25354U 98033A   13289.79065832  .00000000  00000-0  10000-3 0  8437
2 25354 000.1284 078.1466 0002654 115.2832 253.3513 01.00526801 60873
0 CHINASAT 5A (CHINASTAR1)
1 25354U 98033A   13290.77810196 -.00000274  00000-0  10000-3 0  8432
2 25354 000.1327 076.5883 0002624 108.1846 259.4002 01.00530777 60911
0 CHINASAT 5A (CHINASTAR1)
1 25354U 98033A   13291.80504716 -.00000264  00000-0  10000-3 0  8445
2 25354 000.1346 076.6186 0002563 112.5929 266.6259 01.00530297 60924
0 CHINASAT 5A (CHINASTAR1)
1 25354U 98033A   13292.80626851 -.00000255  00000-0  10000-3 0  8452
2 25354 000.1365 076.7156 0002548 112.3492 269.1279 01.00529864 60938
0 CHINASAT 5A (CHINASTAR1)
1 25354U 98033A   13293.82827167 -.00000246  00000-0  10000-3 0  8469
2 25354 000.1386 076.6803 0002453 118.2586 273.1246 01.00529371 60946
0 CHINASAT 5A (CHINASTAR1)
1 25354U 98033A   13294.83761975 -.00000236  00000-0  10000-3 0  8475
2 25354 000.1406 076.7518 0002477 118.5340 278.0732 01.00529005 60959
